[{"OBJECT_NAME":"QIANFAN-42","OBJECT_ID":"2024-232G","EPOCH":"2026-03-09T22:42:14.938272","MEAN_MOTION":14.24534558,"ECCENTRICITY":0.00157446,"INCLINATION":89.0062,"RA_OF_ASC_NODE":27.3953,"ARG_OF_PERICENTER":150.7833,"MEAN_ANOMALY":209.4243,"EPHEMERIS_TYPE":0,"CLASSIFICATION_TYPE":"U","NORAD_CAT_ID":62243,"ELEMENT_SET_NO":999,"REV_AT_EPOCH":11378,"BSTAR":0.00021743398,"MEAN_MOTION_DOT":5.19e-6,"MEAN_MOTION_DDOT":0},{"OBJECT_NAME":"CZ-6A DEB","OBJECT_ID":"2024-140FF","EPOCH":"2026-03-09T02:00:25.264800","MEAN_MOTION":14.37129708,"ECCENTRICITY":0.00814797,"INCLINATION":88.9603,"RA_OF_ASC_NODE":281.7171,"ARG_OF_PERICENTER":341.8127,"MEAN_ANOMALY":18.0161,"EPHEMERIS_TYPE":0,"CLASSIFICATION_TYPE":"U","NORAD_CAT_ID":60780,"ELEMENT_SET_NO":999,"REV_AT_EPOCH":8240,"BSTAR":0.00015993779,"MEAN_MOTION_DOT":5.08e-6,"MEAN_MOTION_DDOT":0}]
